[{"OBJECT_NAME":"STARLINK-3173","OBJECT_ID":"2022-005H","EPOCH":"2026-03-09T19:25:36.129216","MEAN_MOTION":15.08843489,"ECCENTRICITY":0.00014684,"INCLINATION":53.2172,"RA_OF_ASC_NODE":288.5853,"ARG_OF_PERICENTER":91.0324,"MEAN_ANOMALY":269.0836,"EPHEMERIS_TYPE":0,"CLASSIFICATION_TYPE":"U","NORAD_CAT_ID":51111,"ELEMENT_SET_NO":999,"REV_AT_EPOCH":22889,"BSTAR":1.3788576e-5,"MEAN_MOTION_DOT":-6.9e-7,"MEAN_MOTION_DDOT":0},{"OBJECT_NAME":"YUNYAO-1 46","OBJECT_ID":"2025-059D","EPOCH":"2026-03-09T22:34:36.342624","MEAN_MOTION":15.10325082,"ECCENTRICITY":0.00132847,"INCLINATION":97.6091,"RA_OF_ASC_NODE":250.9055,"ARG_OF_PERICENTER":123.8801,"MEAN_ANOMALY":236.3694,"EPHEMERIS_TYPE":0,"CLASSIFICATION_TYPE":"U","NORAD_CAT_ID":63347,"ELEMENT_SET_NO":999,"REV_AT_EPOCH":5331,"BSTAR":0.0002771923,"MEAN_MOTION_DOT":4.488e-5,"MEAN_MOTION_DDOT":0}]
